KSM1-D                  
1 46907U 20081C   26073.95176252  .00012915  00000+0  53545-3 0  9994
2 46907  36.8966 287.3034 0003158 194.0394 166.0267 15.23271188294719
KSM1-A                  
1 46912U 20081H   26073.96021617  .00012300  00000+0  49369-3 0  9992
2 46912  36.8963 281.6777 0002849 276.5022  83.5403 15.24375669294785
R2                      
1 46913U 20081J   26073.29660706  .00010982  00000+0  44720-3 0  9997
2 46913  36.8978 285.2966 0006058 206.9094 153.1341 15.23917832297493
KSM1-B                  
1 46914U 20081K   26073.94287156  .00010662  00000+0  44524-3 0  9991
2 46914  36.9019 287.7467 0005379 216.6047 143.4334 15.23085401297802
GONETS-M 20             
1 47227U 20091A   26073.90537902 -.00000003  00000+0 -93449-4 0  9994
2 47227  82.5098   1.0413 0021819  28.0903 332.1349 12.42890165239364
GONETS-M 21             
1 47228U 20091B   26073.95913865 -.00000028  00000+0 -27422-3 0  9990
2 47228  82.5023 359.7730 0015761  42.0643 318.1644 12.42881237239366
GONETS-M 22             
1 47229U 20091C   26073.93269410 -.00000024  00000+0 -24207-3 0  9993
2 47229  82.5080   0.6441 0022618  23.4445 336.7661 12.42887835239313
CUBEL                   
1 47448U 21006AM  26073.69884607  .00013179  00000+0  33887-3 0  9994
2 47448  97.2471 125.2512 0007808 143.6590 216.5187 15.39361643285217
ASTROCAST-0103          
1 47487U 21006CC  26073.91491369  .00109511  00000+0  75788-3 0  9993
2 47487  97.2629 143.5259 0005651 139.6154 220.5531 15.74163349286346
ARKTIKA-M 1             
1 47719U 21016A   26072.78872222 -.00000108  00000+0  00000+0 0  9991
2 47719  63.2042  71.2738 7248342 269.5023  15.1596  2.00619294 36876
STARLINK-2342           
1 47883U 21021Z   26073.91668981  .00134494  00000+0  27620-2 0  9995
2 47883  53.1594 243.1356 0000876  55.1808 263.8788 15.45064215  5696
GRUS-1B                 
1 47934U 21022C   26073.91350976  .00001626  00000+0  13963-3 0  9991
2 47934  97.5544 320.1522 0014456 282.4460  77.5145 14.98752365271777
2021-022F               
1 47937U 21022F   26073.95052375  .00011807  00000+0  39052-3 0  9999
2 47937  97.3986 334.7920 0011937  71.2402 289.0134 15.31430596275287
UNISAT-7                
1 47945U 21022P   26073.95745428  .00019906  00000+0  53613-3 0  9993
2 47945  97.3972 338.0438 0011455  59.4643 300.7731 15.37810519275368
2021-022X               
1 47953U 21022X   26073.91915759  .00076258  00000+0  93598-3 0  9993
2 47953  97.3974 346.0844 0008196  53.2950 306.9059 15.60025738275740
2021-022AC              
1 47958U 21022AC  26073.96361807  .00136984  00000+0  10559-2 0  9990
2 47958  97.3902 349.0601 0006734  53.8819 306.3066 15.71525603275050
GLOBAL-9                
1 47971U 21023G   26073.38513468  .00026010  00000+0  58920-3 0  9997
2 47971  44.9819  61.8542 0002132  51.8661 308.2419 15.42697246280289
