[{"OBJECT_NAME":"KSM1-D","OBJECT_ID":"2020-081C","EPOCH":"2026-03-14T22:50:32.281728","MEAN_MOTION":15.23271188,"ECCENTRICITY":0.00031586,"INCLINATION":36.8966,"RA_OF_ASC_NODE":287.3034,"ARG_OF_PERICENTER":194.0394,"MEAN_ANOMALY":166.0267,"EPHEMERIS_TYPE":0,"CLASSIFICATION_TYPE":"U","NORAD_CAT_ID":46907,"ELEMENT_SET_NO":999,"REV_AT_EPOCH":29471,"BSTAR":0.00053545347,"MEAN_MOTION_DOT":0.00012915,"MEAN_MOTION_DDOT":0},{"OBJECT_NAME":"KSM1-A","OBJECT_ID":"2020-081H","EPOCH":"2026-03-14T23:02:42.677088","MEAN_MOTION":15.24375669,"ECCENTRICITY":0.00028495,"INCLINATION":36.8963,"RA_OF_ASC_NODE":281.6777,"ARG_OF_PERICENTER":276.5022,"MEAN_ANOMALY":83.5403,"EPHEMERIS_TYPE":0,"CLASSIFICATION_TYPE":"U","NORAD_CAT_ID":46912,"ELEMENT_SET_NO":999,"REV_AT_EPOCH":29478,"BSTAR":0.00049368559,"MEAN_MOTION_DOT":0.000123,"MEAN_MOTION_DDOT":0},{"OBJECT_NAME":"R2","OBJECT_ID":"2020-081J","EPOCH":"2026-03-14T07:07:06.849984","MEAN_MOTION":15.23917832,"ECCENTRICITY":0.00060584,"INCLINATION":36.8978,"RA_OF_ASC_NODE":285.2966,"ARG_OF_PERICENTER":206.9094,"MEAN_ANOMALY":153.1341,"EPHEMERIS_TYPE":0,"CLASSIFICATION_TYPE":"U","NORAD_CAT_ID":46913,"ELEMENT_SET_NO":999,"REV_AT_EPOCH":29749,"BSTAR":0.00044720368,"MEAN_MOTION_DOT":0.00010982,"MEAN_MOTION_DDOT":0},{"OBJECT_NAME":"KSM1-B","OBJECT_ID":"2020-081K","EPOCH":"2026-03-14T22:37:44.102784","MEAN_MOTION":15.23085401,"ECCENTRICITY":0.00053796,"INCLINATION":36.9019,"RA_OF_ASC_NODE":287.7467,"ARG_OF_PERICENTER":216.6047,"MEAN_ANOMALY":143.4334,"EPHEMERIS_TYPE":0,"CLASSIFICATION_TYPE":"U","NORAD_CAT_ID":46914,"ELEMENT_SET_NO":999,"REV_AT_EPOCH":29780,"BSTAR":0.00044524421,"MEAN_MOTION_DOT":0.00010662,"MEAN_MOTION_DDOT":0},{"OBJECT_NAME":"GONETS-M 20","OBJECT_ID":"2020-091A","EPOCH":"2026-03-14T21:43:44.747328","MEAN_MOTION":12.42890165,"ECCENTRICITY":0.00218195,"INCLINATION":82.5098,"RA_OF_ASC_NODE":1.0413,"ARG_OF_PERICENTER":28.0903,"MEAN_ANOMALY":332.1349,"EPHEMERIS_TYPE":0,"CLASSIFICATION_TYPE":"U","NORAD_CAT_ID":47227,"ELEMENT_SET_NO":999,"REV_AT_EPOCH":23936,"BSTAR":-9.3448558e-5,"MEAN_MOTION_DOT":-3.0e-8,"MEAN_MOTION_DDOT":0},{"OBJECT_NAME":"GONETS-M 21","OBJECT_ID":"2020-091B","EPOCH":"2026-03-14T23:01:09.579360","MEAN_MOTION":12.42881237,"ECCENTRICITY":0.00157616,"INCLINATION":82.5023,"RA_OF_ASC_NODE":359.773,"ARG_OF_PERICENTER":42.0643,"MEAN_ANOMALY":318.1644,"EPHEMERIS_TYPE":0,"CLASSIFICATION_TYPE":"U","NORAD_CAT_ID":47228,"ELEMENT_SET_NO":999,"REV_AT_EPOCH":23936,"BSTAR":-0.00027422204,"MEAN_MOTION_DOT":-2.8e-7,"MEAN_MOTION_DDOT":0},{"OBJECT_NAME":"GONETS-M 22","OBJECT_ID":"2020-091C","EPOCH":"2026-03-14T22:23:04.770240","MEAN_MOTION":12.42887835,"ECCENTRICITY":0.00226181,"INCLINATION":82.508,"RA_OF_ASC_NODE":0.6441,"ARG_OF_PERICENTER":23.4445,"MEAN_ANOMALY":336.7661,"EPHEMERIS_TYPE":0,"CLASSIFICATION_TYPE":"U","NORAD_CAT_ID":47229,"ELEMENT_SET_NO":999,"REV_AT_EPOCH":23931,"BSTAR":-0.00024207144,"MEAN_MOTION_DOT":-2.4e-7,"MEAN_MOTION_DDOT":0},{"OBJECT_NAME":"CUBEL","OBJECT_ID":"2021-006AM","EPOCH":"2026-03-14T16:46:20.300448","MEAN_MOTION":15.39361643,"ECCENTRICITY":0.00078087,"INCLINATION":97.2471,"RA_OF_ASC_NODE":125.2512,"ARG_OF_PERICENTER":143.659,"MEAN_ANOMALY":216.5187,"EPHEMERIS_TYPE":0,"CLASSIFICATION_TYPE":"U","NORAD_CAT_ID":47448,"ELEMENT_SET_NO":999,"REV_AT_EPOCH":28521,"BSTAR":0.00033886612,"MEAN_MOTION_DOT":0.00013179,"MEAN_MOTION_DDOT":0},{"OBJECT_NAME":"ASTROCAST-0103","OBJECT_ID":"2021-006CC","EPOCH":"2026-03-14T21:57:28.542816","MEAN_MOTION":15.74163349,"ECCENTRICITY":0.00056513,"INCLINATION":97.2629,"RA_OF_ASC_NODE":143.5259,"ARG_OF_PERICENTER":139.6154,"MEAN_ANOMALY":220.5531,"EPHEMERIS_TYPE":0,"CLASSIFICATION_TYPE":"U","NORAD_CAT_ID":47487,"ELEMENT_SET_NO":999,"REV_AT_EPOCH":28634,"BSTAR":0.00075787767,"MEAN_MOTION_DOT":0.00109511,"MEAN_MOTION_DDOT":0},{"OBJECT_NAME":"ARKTIKA-M 1","OBJECT_ID":"2021-016A","EPOCH":"2026-03-13T18:55:45.599808","MEAN_MOTION":2.00619294,"ECCENTRICITY":0.7248342,"INCLINATION":63.2042,"RA_OF_ASC_NODE":71.2738,"ARG_OF_PERICENTER":269.5023,"MEAN_ANOMALY":15.1596,"EPHEMERIS_TYPE":0,"CLASSIFICATION_TYPE":"U","NORAD_CAT_ID":47719,"ELEMENT_SET_NO":999,"REV_AT_EPOCH":3687,"BSTAR":0,"MEAN_MOTION_DOT":-1.08e-6,"MEAN_MOTION_DDOT":0},{"OBJECT_NAME":"STARLINK-2342","OBJECT_ID":"2021-021Z","EPOCH":"2026-03-14T22:00:01.999584","MEAN_MOTION":15.45064215,"ECCENTRICITY":8.763e-5,"INCLINATION":53.1594,"RA_OF_ASC_NODE":243.1356,"ARG_OF_PERICENTER":55.1808,"MEAN_ANOMALY":263.8788,"EPHEMERIS_TYPE":0,"CLASSIFICATION_TYPE":"U","NORAD_CAT_ID":47883,"ELEMENT_SET_NO":999,"REV_AT_EPOCH":569,"BSTAR":0.0027619683,"MEAN_MOTION_DOT":0.00134494,"MEAN_MOTION_DDOT":0},{"OBJECT_NAME":"GRUS-1B","OBJECT_ID":"2021-022C","EPOCH":"2026-03-14T21:55:27.243264","MEAN_MOTION":14.98752365,"ECCENTRICITY":0.00144561,"INCLINATION":97.5544,"RA_OF_ASC_NODE":320.1522,"ARG_OF_PERICENTER":282.446,"MEAN_ANOMALY":77.5145,"EPHEMERIS_TYPE":0,"CLASSIFICATION_TYPE":"U","NORAD_CAT_ID":47934,"ELEMENT_SET_NO":999,"REV_AT_EPOCH":27177,"BSTAR":0.00013963143,"MEAN_MOTION_DOT":1.626e-5,"MEAN_MOTION_DDOT":0},{"OBJECT_NAME":"2021-022F","OBJECT_ID":"2021-022F","EPOCH":"2026-03-14T22:48:45.252000","MEAN_MOTION":15.31430596,"ECCENTRICITY":0.00119376,"INCLINATION":97.3986,"RA_OF_ASC_NODE":334.792,"ARG_OF_PERICENTER":71.2402,"MEAN_ANOMALY":289.0134,"EPHEMERIS_TYPE":0,"CLASSIFICATION_TYPE":"U","NORAD_CAT_ID":47937,"ELEMENT_SET_NO":999,"REV_AT_EPOCH":27528,"BSTAR":0.00039051964,"MEAN_MOTION_DOT":0.00011807,"MEAN_MOTION_DDOT":0},{"OBJECT_NAME":"UNISAT-7","OBJECT_ID":"2021-022P","EPOCH":"2026-03-14T22:58:44.049792","MEAN_MOTION":15.37810519,"ECCENTRICITY":0.00114558,"INCLINATION":97.3972,"RA_OF_ASC_NODE":338.0438,"ARG_OF_PERICENTER":59.4643,"MEAN_ANOMALY":300.7731,"EPHEMERIS_TYPE":0,"CLASSIFICATION_TYPE":"U","NORAD_CAT_ID":47945,"ELEMENT_SET_NO":999,"REV_AT_EPOCH":27536,"BSTAR":0.00053613361,"MEAN_MOTION_DOT":0.00019906,"MEAN_MOTION_DDOT":0},{"OBJECT_NAME":"2021-022X","OBJECT_ID":"2021-022X","EPOCH":"2026-03-14T22:03:35.215776","MEAN_MOTION":15.60025738,"ECCENTRICITY":0.00081964,"INCLINATION":97.3974,"RA_OF_ASC_NODE":346.0844,"ARG_OF_PERICENTER":53.295,"MEAN_ANOMALY":306.9059,"EPHEMERIS_TYPE":0,"CLASSIFICATION_TYPE":"U","NORAD_CAT_ID":47953,"ELEMENT_SET_NO":999,"REV_AT_EPOCH":27574,"BSTAR":0.00093597747,"MEAN_MOTION_DOT":0.00076258,"MEAN_MOTION_DDOT":0},{"OBJECT_NAME":"2021-022AC","OBJECT_ID":"2021-022AC","EPOCH":"2026-03-14T23:07:36.601248","MEAN_MOTION":15.71525603,"ECCENTRICITY":0.00067343,"INCLINATION":97.3902,"RA_OF_ASC_NODE":349.0601,"ARG_OF_PERICENTER":53.8819,"MEAN_ANOMALY":306.3066,"EPHEMERIS_TYPE":0,"CLASSIFICATION_TYPE":"U","NORAD_CAT_ID":47958,"ELEMENT_SET_NO":999,"REV_AT_EPOCH":27505,"BSTAR":0.0010558774,"MEAN_MOTION_DOT":0.00136984,"MEAN_MOTION_DDOT":0},{"OBJECT_NAME":"GLOBAL-9","OBJECT_ID":"2021-023G","EPOCH":"2026-03-14T09:14:35.636352","MEAN_MOTION":15.42697246,"ECCENTRICITY":0.00021327,"INCLINATION":44.9819,"RA_OF_ASC_NODE":61.8542,"ARG_OF_PERICENTER":51.8661,"MEAN_ANOMALY":308.2419,"EPHEMERIS_TYPE":0,"CLASSIFICATION_TYPE":"U","NORAD_CAT_ID":47971,"ELEMENT_SET_NO":999,"REV_AT_EPOCH":28028,"BSTAR":0.00058919966,"MEAN_MOTION_DOT":0.0002601,"MEAN_MOTION_DDOT":0}]
